     2.11           NAVIGATION DATA     GPS(GPS)            RINEX VERSION / TYPE
cnvtToRINEX 2.17.0  convertToRINEX OPR  16-Aug-13 19:19 UTC PGM / RUN BY / DATE 
----------------------------------------------------------- COMMENT             
    0.1024D-07  0.2235D-07 -0.5960D-07 -0.1192D-06          ION ALPHA           
    0.1004D+06  0.1311D+06 -0.6554D+05 -0.3932D+06          ION BETA            
    0.558793544769D-08 0.799360577730D-14    61440      218 DELTA-UTC: A0,A1,T,W
    16                                                      LEAP SECONDS        
                                                            END OF HEADER       
 3 13 08 16 18 00  0.0 0.246879179031D-03 0.511590769747D-11 0.000000000000D+00
    0.127000000000D+03-0.109218750000D+03 0.503306679029D-08 0.130604711927D+01
   -0.570528209209D-05 0.166327898623D-01 0.103991478682D-04 0.515372579384D+04
    0.496800000000D+06-0.370666384697D-06 0.224486335516D+01-0.173225998878D-06
    0.935339401875D+00 0.172000000000D+03 0.132016417926D+01-0.841213611352D-08
    0.161792453591D-09 0.100000000000D+01 0.175300000000D+04 0.000000000000D+00
    0.485000000000D+01 0.000000000000D+00-0.465661287308D-08 0.127000000000D+03
    0.489618000000D+06 0.400000000000D+01 0.000000000000D+00 0.000000000000D+00
 9 13 08 16 18 00  0.0 0.261731445789D-03 0.261479726760D-11 0.000000000000D+00
    0.440000000000D+02 0.780937500000D+02 0.415124434456D-08 0.937001902942D+00
    0.379420816898D-05 0.169800599106D-01 0.461749732494D-05 0.515372245789D+04
    0.496800000000D+06-0.216066837311D-06 0.293405805072D+00-0.195577740669D-06
    0.983968855692D+00 0.302375000000D+03 0.171471613302D+01-0.830641742420D-08
    0.227866634417D-09 0.100000000000D+01 0.175300000000D+04 0.000000000000D+00
    0.340000000000D+01 0.000000000000D+00-0.558793544769D-08 0.440000000000D+02
    0.489618000000D+06 0.400000000000D+01 0.000000000000D+00 0.000000000000D+00
 8 13 08 16 18 00  0.0 0.800006091595D-05 0.227373675443D-12 0.000000000000D+00
    0.600000000000D+02 0.657187500000D+02 0.380015829185D-08-0.809250472142D+00
    0.347569584846D-05 0.133074473124D-01 0.338815152645D-05 0.515370121956D+04
    0.496800000000D+06 0.279396772385D-06 0.409070532092D+00-0.409781932831D-07
    0.998179856963D+00 0.328343750000D+03-0.285277623319D+01-0.798997567170D-08
    0.292155026572D-09 0.100000000000D+01 0.175300000000D+04 0.000000000000D+00
    0.240000000000D+01 0.000000000000D+00-0.372529029846D-08 0.600000000000D+02
    0.489618000000D+06 0.400000000000D+01 0.000000000000D+00 0.000000000000D+00
13 13 08 16 18 00  0.0 0.894144177437D-04-0.375166564481D-11 0.000000000000D+00
    0.950000000000D+02 0.849375000000D+02 0.371944064392D-08 0.208346826395D+01
    0.452809035778D-05 0.506684207357D-02 0.104233622551D-04 0.515371900940D+04
    0.496800000000D+06 0.204890966415D-07-0.650022587273D+00 0.102445483208D-06
    0.980679484391D+00 0.186593750000D+03 0.218976161382D+01-0.754495713489D-08
   -0.123219418298D-09 0.100000000000D+01 0.175300000000D+04 0.000000000000D+00
    0.340000000000D+01 0.000000000000D+00-0.107102096081D-07 0.950000000000D+02
    0.489618000000D+06 0.400000000000D+01 0.000000000000D+00 0.000000000000D+00
 1 13 08 16 18 00  0.0 0.637955963612D-04 0.454747350886D-11 0.000000000000D+00
    0.670000000000D+02 0.600000000000D+01 0.484948771491D-08 0.355237347004D+00
    0.311061739922D-06 0.221732736100D-02 0.742264091969D-05 0.515368532944D+04
    0.496800000000D+06-0.745058059692D-08-0.284437787066D+01-0.204890966415D-07
    0.960685490418D+00 0.231343750000D+03 0.329761876523D+00-0.812033824468D-08
    0.232152527227D-09 0.100000000000D+01 0.175300000000D+04 0.000000000000D+00
    0.240000000000D+01 0.000000000000D+00 0.838190317154D-08 0.670000000000D+02
    0.489618000000D+06 0.400000000000D+01 0.000000000000D+00 0.000000000000D+00
 7 13 08 16 18 00  0.0 0.248063355684D-03 0.420641299570D-11 0.000000000000D+00
    0.650000000000D+02 0.797812500000D+02 0.434160941689D-08-0.238856123671D+00
    0.423006713390D-05 0.680200755596D-02 0.410340726376D-05 0.515367230034D+04
    0.496800000000D+06 0.651925802231D-07 0.316052205574D+00 0.931322574615D-07
    0.975355407628D+00 0.306031250000D+03-0.290484764213D+01-0.827605901679D-08
    0.254653464482D-09 0.100000000000D+01 0.175300000000D+04 0.000000000000D+00
    0.240000000000D+01 0.000000000000D+00-0.107102096081D-07 0.650000000000D+02
    0.489618000000D+06 0.400000000000D+01 0.000000000000D+00 0.000000000000D+00
28 13 08 16 18 00  0.0 0.284693669528D-03 0.318323145621D-11 0.000000000000D+00
    0.330000000000D+02-0.928437500000D+02 0.410195657724D-08-0.292417862407D+01
   -0.489689409733D-05 0.186764376704D-01 0.394508242607D-05 0.515365208244D+04
    0.496800000000D+06 0.322237610817D-06 0.140027537998D+01-0.689178705215D-07
    0.983810311946D+00 0.312906250000D+03-0.176561537299D+01-0.776960934970D-08
   -0.364300888880D-10 0.100000000000D+01 0.175300000000D+04 0.000000000000D+00
    0.240000000000D+01 0.000000000000D+00-0.107102096081D-07 0.330000000000D+02
    0.489618000000D+06 0.400000000000D+01 0.000000000000D+00 0.000000000000D+00
19 13 08 16 18 00  0.0-0.397029798478D-03-0.284217094304D-11 0.000000000000D+00
    0.690000000000D+02-0.759062500000D+02 0.440661212451D-08 0.176930569356D+01
   -0.367313623428D-05 0.950110598933D-02 0.112783163786D-04 0.515373889160D+04
    0.496800000000D+06-0.109896063805D-06 0.248194414728D+01 0.264495611191D-06
    0.963497065360D+00 0.165406250000D+03 0.362289974123D+00-0.794033074665D-08
    0.230723896291D-09 0.100000000000D+01 0.175300000000D+04 0.000000000000D+00
    0.240000000000D+01 0.000000000000D+00-0.144354999065D-07 0.690000000000D+02
    0.489618000000D+06 0.400000000000D+01 0.000000000000D+00 0.000000000000D+00
27 13 08 16 18 00  0.0-0.247028656304D-04-0.488853402203D-11 0.000000000000D+00
    0.100000000000D+02-0.838125000000D+02 0.442018411841D-08 0.174225247471D+01
   -0.425241887569D-05 0.361150363460D-03 0.107772648335D-04 0.515367091370D+04
    0.496800000000D+06-0.465661287308D-07 0.238652163486D+01 0.502914190292D-07
    0.960821399897D+00 0.170968750000D+03 0.931797372918D+00-0.789711466081D-08
    0.277868717205D-09 0.100000000000D+01 0.175300000000D+04 0.000000000000D+00
    0.240000000000D+01 0.000000000000D+00 0.186264514923D-08 0.100000000000D+02
    0.489618000000D+06 0.400000000000D+01 0.000000000000D+00 0.000000000000D+00
 6 13 08 16 18 00  0.0 0.520283356309D-05 0.197815097636D-10 0.000000000000D+00
    0.100000000000D+02-0.887500000000D+02 0.477912764128D-08 0.312266492794D+01
   -0.444799661636D-05 0.809875642881D-02 0.108312815428D-04 0.515368768883D+04
    0.496800000000D+06-0.139698386192D-06 0.232494997447D+01 0.894069671631D-07
    0.941974368808D+00 0.159125000000D+03-0.248113780878D+00-0.797390357366D-08
    0.246438836595D-09 0.100000000000D+01 0.175300000000D+04 0.000000000000D+00
    0.240000000000D+01 0.000000000000D+00-0.512227416039D-08 0.100000000000D+02
    0.489618000000D+06 0.400000000000D+01 0.000000000000D+00 0.000000000000D+00
16 13 08 16 18 00  0.0-0.248534604907D-03 0.682121026330D-12 0.000000000000D+00
    0.730000000000D+02-0.105468750000D+03 0.418267422517D-08-0.274778566599D+01
   -0.538304448128D-05 0.706509023439D-02 0.472553074360D-05 0.515369575310D+04
    0.496800000000D+06-0.109896063805D-06 0.139412852152D+01-0.391155481339D-07
    0.985349297376D+00 0.304187500000D+03 0.138522279266D+00-0.802426281418D-08
   -0.141791620476D-09 0.100000000000D+01 0.175300000000D+04 0.000000000000D+00
    0.240000000000D+01 0.000000000000D+00-0.977888703346D-08 0.730000000000D+02
    0.489618000000D+06 0.400000000000D+01 0.000000000000D+00 0.000000000000D+00
26 13 08 16 17 59 44.0 0.145328231156D-03 0.175077730091D-10 0.000000000000D+00
    0.500000000000D+01 0.664375000000D+02 0.389123351407D-08 0.131410909257D+01
    0.334344804287D-05 0.210450215964D-01 0.101011246443D-04 0.515369715500D+04
    0.496784000000D+06-0.402331352234D-06-0.657711321894D+00-0.195577740669D-06
    0.978112222620D+00 0.197968750000D+03 0.124820383873D+01-0.798318967475D-08
   -0.163935399996D-09 0.100000000000D+01 0.175300000000D+04 0.000000000000D+00
    0.240000000000D+01 0.000000000000D+00-0.558793544769D-08 0.500000000000D+01
    0.491076000000D+06 0.400000000000D+01 0.000000000000D+00 0.000000000000D+00
17 13 08 16 18 00  0.0-0.118548050523D-04-0.375166564481D-11 0.000000000000D+00
    0.230000000000D+02-0.696875000000D+02 0.421053252844D-08 0.257146644191D+01
   -0.366009771824D-05 0.844964431599D-02 0.102296471596D-04 0.515367560768D+04
    0.496800000000D+06 0.223517417908D-07 0.243023883944D+01-0.167638063431D-06
    0.966256971498D+00 0.184125000000D+03-0.219216341225D+01-0.768103423162D-08
    0.178936024832D-09 0.100000000000D+01 0.175300000000D+04 0.000000000000D+00
    0.240000000000D+01 0.000000000000D+00-0.102445483208D-07 0.230000000000D+02
    0.492966000000D+06 0.400000000000D+01 0.000000000000D+00 0.000000000000D+00
 3 13 08 16 17 59 44.0 0.246882438660D-03 0.511590769747D-11 0.000000000000D+00
    0.200000000000D+01-0.109218750000D+03 0.503306679029D-08 0.130371377225D+01
   -0.570528209209D-05 0.166327890474D-01 0.103991478682D-04 0.515372579384D+04
    0.496784000000D+06-0.370666384697D-06 0.224486350584D+01-0.173225998878D-06
    0.935339400412D+00 0.172000000000D+03 0.132016388228D+01-0.841213611352D-08
    0.161792453591D-09 0.100000000000D+01 0.175300000000D+04 0.000000000000D+00
    0.240000000000D+01 0.000000000000D+00-0.465661287308D-08 0.200000000000D+01
    0.494178000000D+06 0.400000000000D+01 0.000000000000D+00 0.000000000000D+00
